{"type": "FeatureCollection", "features": [ {"type": "Feature", "properties": {"norad_id": 33825, "name": "COSMOS 2251 DEB", "group": "cosmos-2251-debris", "lat": -62.72588433925808, "lon": -145.48548160695154, "alt_km": 654.1517556775734, "timestamp": "2025-12-26T16:33:55.963433+00:00", "meta": {"OBJECT_NAME": "COSMOS 2251 DEB", "OBJECT_ID": "1993-036BS", "EPOCH": "2025-12-26T07:19:03.758304", "MEAN_MOTION": 14.69903105, "ECCENTRICITY": 0.00851298, "INCLINATION": 73.9853, "RA_OF_ASC_NODE": 1.4091, "ARG_OF_PERICENTER": 325.3514, "MEAN_ANOMALY": 45.0063, "EPHEMERIS_TYPE": 0, "CLASSIFICATION_TYPE": "U", "NORAD_CAT_ID": 33825, "ELEMENT_SET_NO": 999, "REV_AT_EPOCH": 89079, "BSTAR": 0.0011586634, "MEAN_MOTION_DOT": 7.305e-05, "MEAN_MOTION_DDOT": 0}, "tle": {"line1": "1 33825U 93036BS  25360.30490461  .00007305  00000+0  11587-2 0  9993", "line2": "2 33825  73.9853   1.4091 0085129 325.3514  45.0063 14.69903105890790"}}, "geometry": {"type": "Point", "coordinates": [-145.48548160695154, -62.72588433925808]}}, {"type": "Feature", "properties": {"norad_id": 33826, "name": "COSMOS 2251 DEB", "group": "cosmos-2251-debris", "lat": -47.10380783181026, "lon": 5.738330407208607, "alt_km": 748.634770559318, "timestamp": "2025-12-26T16:33:55.963443+00:00", "meta": {"OBJECT_NAME": "COSMOS 2251 DEB", "OBJECT_ID": "1993-036BT", "EPOCH": "2025-12-26T05:35:07.781280", "MEAN_MOTION": 14.51778218, "ECCENTRICITY": 0.008252, "INCLINATION": 74.0641, "RA_OF_ASC_NODE": 24.5077, "ARG_OF_PERICENTER": 64.2816, "MEAN_ANOMALY": 16.9269, "EPHEMERIS_TYPE": 0, "CLASSIFICATION_TYPE": "U", "NORAD_CAT_ID": 33826, "ELEMENT_SET_NO": 999, "REV_AT_EPOCH": 87965, "BSTAR": 0.0004733656, "MEAN_MOTION_DOT": 1.961e-05, "MEAN_MOTION_DDOT": 0}, "tle": {"line1": "1 33826U 93036BT  25360.23272895  .00001961  00000+0  47337-3 0  9990", "line2": "2 33826  74.0641  24.5077 0082520  64.2816  16.9269 14.51778218879657"}}, "geometry": {"type": "Point", "coordinates": [5.738330407208607, -47.10380783181026]}}, {"type": "Feature", "properties": {"norad_id": 33828, "name": "COSMOS 2251 DEB", "group": "cosmos-2251-debris", "lat": -15.817565033051906, "lon": 36.797421569876086, "alt_km": 747.1892323001521, "timestamp": "2025-12-26T16:33:55.963453+00:00", "meta": {"OBJECT_NAME": "COSMOS 2251 DEB", "OBJECT_ID": "1993-036BV", "EPOCH": "2025-12-26T01:24:06.259392", "MEAN_MOTION": 14.44369409, "ECCENTRICITY": 0.00295188, "INCLINATION": 74.0448, "RA_OF_ASC_NODE": 213.3232, "ARG_OF_PERICENTER": 284.2143, "MEAN_ANOMALY": 228.4887, "EPHEMERIS_TYPE": 0, "CLASSIFICATION_TYPE": "U", "NORAD_CAT_ID": 33828, "ELEMENT_SET_NO": 999, "REV_AT_EPOCH": 88505, "BSTAR": 0.00037327358, "MEAN_MOTION_DOT": 1.266e-05, "MEAN_MOTION_DDOT": 0}, "tle": {"line1": "1 33828U 93036BV  25360.05840578  .00001266  00000+0  37327-3 0  9997", "line2": "2 33828  74.0448 213.3232 0029518 284.2143 228.4887 14.44369409885057"}}, "geometry": {"type": "Point", "coordinates": [36.797421569876086, -15.817565033051906]}}, {"type": "Feature", "properties": {"norad_id": 33830, "name": "COSMOS 2251 DEB", "group": "cosmos-2251-debris", "lat": -73.88776055072597, "lon": 105.4553586875961, "alt_km": 627.1987817784875, "timestamp": "2025-12-26T16:33:55.963462+00:00", "meta": {"OBJECT_NAME": "COSMOS 2251 DEB", "OBJECT_ID": "1993-036BX", "EPOCH": "2025-12-26T01:15:54.396288", "MEAN_MOTION": 14.77034693, "ECCENTRICITY": 0.00428153, "INCLINATION": 74.0307, "RA_OF_ASC_NODE": 204.262, "ARG_OF_PERICENTER": 321.6548, "MEAN_ANOMALY": 158.1529, "EPHEMERIS_TYPE": 0, "CLASSIFICATION_TYPE": "U", "NORAD_CAT_ID": 33830, "ELEMENT_SET_NO": 999, "REV_AT_EPOCH": 89668, "BSTAR": 0.00071378386, "MEAN_MOTION_DOT": 5.081e-05, "MEAN_MOTION_DDOT": 0}, "tle": {"line1": "1 33830U 93036BX  25360.05271292  .00005081  00000+0  71378-3 0  9994", "line2": "2 33830  74.0307 204.2620 0042815 321.6548 158.1529 14.77034693896687"}}, "geometry": {"type": "Point", "coordinates": [105.4553586875961, -73.88776055072597]}}, {"type": "Feature", "properties": {"norad_id": 33832, "name": "COSMOS 2251 DEB", "group": "cosmos-2251-debris", "lat": -41.44200772822631, "lon": 17.976566265030776, "alt_km": 680.1834845796266, "timestamp": "2025-12-26T16:33:55.963471+00:00", "meta": {"OBJECT_NAME": "COSMOS 2251 DEB", "OBJECT_ID": "1993-036BZ", "EPOCH": "2025-12-26T06:29:47.691168", "MEAN_MOTION": 14.60806898, "ECCENTRICITY": 0.00239772, "INCLINATION": 74.0534, "RA_OF_ASC_NODE": 184.1544, "ARG_OF_PERICENTER": 212.6217, "MEAN_ANOMALY": 325.3172, "EPHEMERIS_TYPE": 0, "CLASSIFICATION_TYPE": "U", "NORAD_CAT_ID": 33832, "ELEMENT_SET_NO": 999, "REV_AT_EPOCH": 88622, "BSTAR": 0.0014171922, "MEAN_MOTION_DOT": 6.927e-05, "MEAN_MOTION_DDOT": 0}, "tle": {"line1": "1 33832U 93036BZ  25360.27069087  .00006927  00000+0  14172-2 0  9995", "line2": "2 33832  74.0534 184.1544 0023977 212.6217 325.3172 14.60806898886229"}}, "geometry": {"type": "Point", "coordinates": [17.976566265030776, -41.44200772822631]}}, {"type": "Feature", "properties": {"norad_id": 33835, "name": "COSMOS 2251 DEB", "group": "cosmos-2251-debris", "lat": 39.452557787152664, "lon": -119.18133207893948, "alt_km": 645.4562158759436, "timestamp": "2025-12-26T16:33:55.963481+00:00", "meta": {"OBJECT_NAME": "COSMOS 2251 DEB", "OBJECT_ID": "1993-036CC", "EPOCH": "2025-12-26T06:20:30.703200", "MEAN_MOTION": 14.62376099, "ECCENTRICITY": 0.0053663, "INCLINATION": 74.0572, "RA_OF_ASC_NODE": 75.2392, "ARG_OF_PERICENTER": 124.7442, "MEAN_ANOMALY": 291.9423, "EPHEMERIS_TYPE": 0, "CLASSIFICATION_TYPE": "U", "NORAD_CAT_ID": 33835, "ELEMENT_SET_NO": 999, "REV_AT_EPOCH": 88987, "BSTAR": 0.00088089199, "MEAN_MOTION_DOT": 4.519e-05, "MEAN_MOTION_DDOT": 0}, "tle": {"line1": "1 33835U 93036CC  25360.26424425  .00004519  00000+0  88089-3 0  9992", "line2": "2 33835  74.0572  75.2392 0053663 124.7442 291.9423 14.62376099889871"}}, "geometry": {"type": "Point", "coordinates": [-119.18133207893948, 39.452557787152664]}}, {"type": "Feature", "properties": {"norad_id": 33836, "name": "COSMOS 2251 DEB", "group": "cosmos-2251-debris", "lat": -41.93060258349271, "lon": -143.52021684810433, "alt_km": 644.8620977984856, "timestamp": "2025-12-26T16:33:55.963490+00:00", "meta": {"OBJECT_NAME": "COSMOS 2251 DEB", "OBJECT_ID": "1993-036CD", "EPOCH": "2025-12-26T02:42:29.806272", "MEAN_MOTION": 14.79839055, "ECCENTRICITY": 0.00229361, "INCLINATION": 73.9961, "RA_OF_ASC_NODE": 232.5585, "ARG_OF_PERICENTER": 80.6181, "MEAN_ANOMALY": 40.9444, "EPHEMERIS_TYPE": 0, "CLASSIFICATION_TYPE": "U", "NORAD_CAT_ID": 33836, "ELEMENT_SET_NO": 999, "REV_AT_EPOCH": 64286, "BSTAR": 0.0010373728, "MEAN_MOTION_DOT": 7.828e-05, "MEAN_MOTION_DDOT": 0}, "tle": {"line1": "1 33836U 93036CD  25360.11284498  .00007828  00000+0  10374-2 0  9998", "line2": "2 33836  73.9961 232.5585 0022936  80.6181  40.9444 14.79839055642868"}}, "geometry": {"type": "Point", "coordinates": [-143.52021684810433, -41.93060258349271]}}, {"type": "Feature", "properties": {"norad_id": 33837, "name": "COSMOS 2251 DEB", "group": "cosmos-2251-debris", "lat": -71.55040472452785, "lon": -29.913577180982625, "alt_km": 708.2456684377939, "timestamp": "2025-12-26T16:33:55.963500+00:00", "meta": {"OBJECT_NAME": "COSMOS 2251 DEB", "OBJECT_ID": "1993-036CE", "EPOCH": "2025-12-26T03:41:45.570624", "MEAN_MOTION": 14.50728432, "ECCENTRICITY": 0.00358619, "INCLINATION": 74.0122, "RA_OF_ASC_NODE": 30.3422, "ARG_OF_PERICENTER": 249.9415, "MEAN_ANOMALY": 109.7884, "EPHEMERIS_TYPE": 0, "CLASSIFICATION_TYPE": "U", "NORAD_CAT_ID": 33837, "ELEMENT_SET_NO": 999, "REV_AT_EPOCH": 88990, "BSTAR": 0.00024128347, "MEAN_MOTION_DOT": 9.28e-06, "MEAN_MOTION_DDOT": 0}, "tle": {"line1": "1 33837U 93036CE  25360.15399966  .00000928  00000+0  24128-3 0  9997", "line2": "2 33837  74.0122  30.3422 0035861 249.9415 109.7884 14.50728432889900"}}, "geometry": {"type": "Point", "coordinates": [-29.913577180982625, -71.55040472452785]}}, {"type": "Feature", "properties": {"norad_id": 33838, "name": "COSMOS 2251 DEB", "group": "cosmos-2251-debris", "lat": 33.122747888380246, "lon": 134.45196002290297, "alt_km": 745.5694068051525, "timestamp": "2025-12-26T16:33:55.963509+00:00", "meta": {"OBJECT_NAME": "COSMOS 2251 DEB", "OBJECT_ID": "1993-036CF", "EPOCH": "2025-12-25T19:25:45.372288", "MEAN_MOTION": 14.48403087, "ECCENTRICITY": 0.00274806, "INCLINATION": 74.0365, "RA_OF_ASC_NODE": 125.3369, "ARG_OF_PERICENTER": 245.478, "MEAN_ANOMALY": 238.8832, "EPHEMERIS_TYPE": 0, "CLASSIFICATION_TYPE": "U", "NORAD_CAT_ID": 33838, "ELEMENT_SET_NO": 999, "REV_AT_EPOCH": 88758, "BSTAR": 0.00045471121, "MEAN_MOTION_DOT": 1.684e-05, "MEAN_MOTION_DDOT": 0}, "tle": {"line1": "1 33838U 93036CF  25359.80955292  .00001684  00000+0  45471-3 0  9992", "line2": "2 33838  74.0365 125.3369 0027480 245.4780 238.8832 14.48403087887581"}}, "geometry": {"type": "Point", "coordinates": [134.45196002290297, 33.122747888380246]}}, {"type": "Feature", "properties": {"norad_id": 33839, "name": "COSMOS 2251 DEB", "group": "cosmos-2251-debris", "lat": 44.93614851711035, "lon": -163.73191661443497, "alt_km": 703.2743826451106, "timestamp": "2025-12-26T16:33:55.963518+00:00", "meta": {"OBJECT_NAME": "COSMOS 2251 DEB", "OBJECT_ID": "1993-036CG", "EPOCH": "2025-12-25T12:37:08.860800", "MEAN_MOTION": 14.64450648, "ECCENTRICITY": 0.0085374, "INCLINATION": 74.0373, "RA_OF_ASC_NODE": 181.9107, "ARG_OF_PERICENTER": 291.0826, "MEAN_ANOMALY": 99.0176, "EPHEMERIS_TYPE": 0, "CLASSIFICATION_TYPE": "U", "NORAD_CAT_ID": 33839, "ELEMENT_SET_NO": 999, "REV_AT_EPOCH": 89767, "BSTAR": 0.00022045, "MEAN_MOTION_DOT": 1.196e-05, "MEAN_MOTION_DDOT": 0}, "tle": {"line1": "1 33839U 93036CG  25359.52579700  .00001196  00000+0  22045-3 0  9998", "line2": "2 33839  74.0373 181.9107 0085374 291.0826  99.0176 14.64450648897675"}}, "geometry": {"type": "Point", "coordinates": [-163.73191661443497, 44.93614851711035]}}]}